{
  "type": "FeatureCollection",
  "features": [
    {
      "type": "Feature",
      "properties": {
        "norad_id": 43823,
        "name": "GEO-KOMPSAT-2A",
        "group": "weather",
        "lat": -0.03730291627599757,
        "lon": -38.03343648210158,
        "alt_km": 35786.85509136002,
        "timestamp": "2025-12-09T07:41:32.845007+00:00",
        "meta_object_name": "GEO-KOMPSAT-2A",
        "meta_object_id": "2018-100A",
        "meta_epoch": "2025-12-08T09:04:40.751616",
        "meta_mean_motion": 1.00270893,
        "meta_eccentricity": 1.774e-05,
        "meta_inclination": 0.0576,
        "meta_ra_of_asc_node": 113.8278,
        "meta_arg_of_pericenter": 87.1447,
        "meta_mean_anomaly": 140.8536,
        "meta_ephemeris_type": 0,
        "meta_classification_type": "U",
        "meta_norad_cat_id": 43823,
        "meta_element_set_no": 999,
        "meta_rev_at_epoch": 2571,
        "meta_bstar": 0,
        "meta_mean_motion_dot": -3.41e-06,
        "meta_mean_motion_ddot": 0,
        "tle_line1": "1 43823U 18100A   25342.37824944 -.00000341  00000+0  00000+0 0  9994",
        "tle_line2": "2 43823   0.0576 113.8278 0000177  87.1447 140.8536  1.00270893 25718"
      },
      "geometry": {
        "type": "Point",
        "coordinates": [
          -38.03343648210158,
          -0.03730291627599757
        ]
      }
    },
    {
      "type": "Feature",
      "properties": {
        "norad_id": 44387,
        "name": "METEOR-M2 2",
        "group": "weather",
        "lat": 46.20703041520796,
        "lon": 152.41005136739903,
        "alt_km": 806.0709398945337,
        "timestamp": "2025-12-09T07:41:32.845018+00:00",
        "meta_object_name": "METEOR-M2 2",
        "meta_object_id": "2019-038A",
        "meta_epoch": "2025-12-08T22:38:24.702144",
        "meta_mean_motion": 14.24288366,
        "meta_eccentricity": 0.00011045,
        "meta_inclination": 98.8967,
        "meta_ra_of_asc_node": 322.6252,
        "meta_arg_of_pericenter": 156.1361,
        "meta_mean_anomaly": 203.9868,
        "meta_ephemeris_type": 0,
        "meta_classification_type": "U",
        "meta_norad_cat_id": 44387,
        "meta_element_set_no": 999,
        "meta_rev_at_epoch": 33421,
        "meta_bstar": 6.5264535e-05,
        "meta_mean_motion_dot": 1.05e-06,
        "meta_mean_motion_ddot": 0,
        "tle_line1": "1 44387U 19038A   25342.94334146  .00000105  00000+0  65265-4 0  9990",
        "tle_line2": "2 44387  98.8967 322.6252 0001104 156.1361 203.9868 14.24288366334219"
      },
      "geometry": {
        "type": "Point",
        "coordinates": [
          152.41005136739903,
          46.20703041520796
        ]
      }
    },
    {
      "type": "Feature",
      "properties": {
        "norad_id": 47719,
        "name": "ARKTIKA-M 1",
        "group": "weather",
        "lat": 63.18859520845143,
        "lon": 174.45187992437906,
        "alt_km": 39258.91688638885,
        "timestamp": "2025-12-09T07:41:32.845041+00:00",
        "meta_object_name": "ARKTIKA-M 1",
        "meta_object_id": "2021-016A",
        "meta_epoch": "2025-12-01T02:41:41.634816",
        "meta_mean_motion": 2.00613156,
        "meta_eccentricity": 0.71974708,
        "meta_inclination": 63.1756,
        "meta_ra_of_asc_node": 85.6045,
        "meta_arg_of_pericenter": 269.084,
        "meta_mean_anomaly": 15.7076,
        "meta_ephemeris_type": 0,
        "meta_classification_type": "U",
        "meta_norad_cat_id": 47719,
        "meta_element_set_no": 999,
        "meta_rev_at_epoch": 3481,
        "meta_bstar": 0,
        "meta_mean_motion_dot": -1.2e-07,
        "meta_mean_motion_ddot": 0,
        "tle_line1": "1 47719U 21016A   25335.11228744 -.00000012  00000+0  00000+0 0  9997",
        "tle_line2": "2 47719  63.1756  85.6045 7197470 269.0840  15.7076  2.00613156 34816"
      },
      "geometry": {
        "type": "Point",
        "coordinates": [
          174.45187992437906,
          63.18859520845143
        ]
      }
    },
    {
      "type": "Feature",
      "properties": {
        "norad_id": 49008,
        "name": "FENGYUN 3E",
        "group": "weather",
        "lat": 32.930154070806,
        "lon": 169.60457825923677,
        "alt_km": 824.0786309753676,
        "timestamp": "2025-12-09T07:41:32.845056+00:00",
        "meta_object_name": "FENGYUN 3E",
        "meta_object_id": "2021-062A",
        "meta_epoch": "2025-12-09T00:14:22.512192",
        "meta_mean_motion": 14.19877852,
        "meta_eccentricity": 6.106e-05,
        "meta_inclination": 98.7471,
        "meta_ra_of_asc_node": 343.5749,
        "meta_arg_of_pericenter": 294.211,
        "meta_mean_anomaly": 65.9002,
        "meta_ephemeris_type": 0,
        "meta_classification_type": "U",
        "meta_norad_cat_id": 49008,
        "meta_element_set_no": 999,
        "meta_rev_at_epoch": 22959,
        "meta_bstar": -0.00011244259,
        "meta_mean_motion_dot": -2.83e-06,
        "meta_mean_motion_ddot": 0,
        "tle_line1": "1 49008U 21062A   25343.00998278 -.00000283  00000+0 -11244-3 0  9991",
        "tle_line2": "2 49008  98.7471 343.5749 0000610 294.2110  65.9002 14.19877852229591"
      },
      "geometry": {
        "type": "Point",
        "coordinates": [
          169.60457825923677,
          32.930154070806
        ]
      }
    },
    {
      "type": "Feature",
      "properties": {
        "norad_id": 51850,
        "name": "GOES 18",
        "group": "weather",
        "lat": 0.0041817116064176325,
        "lon": 56.702547988910574,
        "alt_km": 35787.79253881344,
        "timestamp": "2025-12-09T07:41:32.845068+00:00",
        "meta_object_name": "GOES 18",
        "meta_object_id": "2022-021A",
        "meta_epoch": "2025-12-08T18:05:20.073984",
        "meta_mean_motion": 1.00270752,
        "meta_eccentricity": 7.187e-05,
        "meta_inclination": 0.0115,
        "meta_ra_of_asc_node": 94.7936,
        "meta_arg_of_pericenter": 202.9599,
        "meta_mean_anomaly": 274.3353,
        "meta_ephemeris_type": 0,
        "meta_classification_type": "U",
        "meta_norad_cat_id": 51850,
        "meta_element_set_no": 999,
        "meta_rev_at_epoch": 468,
        "meta_bstar": 0,
        "meta_mean_motion_dot": 9.9e-07,
        "meta_mean_motion_ddot": 0,
        "tle_line1": "1 51850U 22021A   25342.75370456  .00000099  00000+0  00000+0 0  9995",
        "tle_line2": "2 51850   0.0115  94.7936 0000718 202.9599 274.3353  1.00270752  4687"
      },
      "geometry": {
        "type": "Point",
        "coordinates": [
          56.702547988910574,
          0.0041817116064176325
        ]
      }
    },
    {
      "type": "Feature",
      "properties": {
        "norad_id": 54234,
        "name": "NOAA 21 (JPSS-2)",
        "group": "weather",
        "lat": 22.265113513299017,
        "lon": 103.28485448880554,
        "alt_km": 827.2736919662984,
        "timestamp": "2025-12-09T07:41:32.845078+00:00",
        "meta_object_name": "NOAA 21 (JPSS-2)",
        "meta_object_id": "2022-150A",
        "meta_epoch": "2025-12-08T22:29:43.789632",
        "meta_mean_motion": 14.19522503,
        "meta_eccentricity": 0.00023665,
        "meta_inclination": 98.7457,
        "meta_ra_of_asc_node": 279.2931,
        "meta_arg_of_pericenter": 45.4509,
        "meta_mean_anomaly": 314.686,
        "meta_ephemeris_type": 0,
        "meta_classification_type": "U",
        "meta_norad_cat_id": 54234,
        "meta_element_set_no": 999,
        "meta_rev_at_epoch": 15955,
        "meta_bstar": 0.00010881071,
        "meta_mean_motion_dot": 1.85e-06,
        "meta_mean_motion_ddot": 0,
        "tle_line1": "1 54234U 22150A   25342.93731238  .00000185  00000+0  10881-3 0  9994",
        "tle_line2": "2 54234  98.7457 279.2931 0002366  45.4509 314.6860 14.19522503159552"
      },
      "geometry": {
        "type": "Point",
        "coordinates": [
          103.28485448880554,
          22.265113513299017
        ]
      }
    },
    {
      "type": "Feature",
      "properties": {
        "norad_id": 54743,
        "name": "METEOSAT-12 (MTG-I1)",
        "group": "weather",
        "lat": 0.2088898590313535,
        "lon": -166.53684450355854,
        "alt_km": 35782.16973131736,
        "timestamp": "2025-12-09T07:41:32.845095+00:00",
        "meta_object_name": "METEOSAT-12 (MTG-I1)",
        "meta_object_id": "2022-170C",
        "meta_epoch": "2025-12-08T22:09:44.807328",
        "meta_mean_motion": 1.0027505,
        "meta_eccentricity": 0.00014625,
        "meta_inclination": 0.7262,
        "meta_ra_of_asc_node": 31.0199,
        "meta_arg_of_pericenter": 223.8979,
        "meta_mean_anomaly": 155.2153,
        "meta_ephemeris_type": 0,
        "meta_classification_type": "U",
        "meta_norad_cat_id": 54743,
        "meta_element_set_no": 999,
        "meta_rev_at_epoch": 1107,
        "meta_bstar": 0,
        "meta_mean_motion_dot": -4e-08,
        "meta_mean_motion_ddot": 0,
        "tle_line1": "1 54743U 22170C   25342.92343527 -.00000004  00000+0  00000+0 0  9999",
        "tle_line2": "2 54743   0.7262  31.0199 0001462 223.8979 155.2153  1.00275050 11079"
      },
      "geometry": {
        "type": "Point",
        "coordinates": [
          -166.53684450355854,
          0.2088898590313535
        ]
      }
    }
  ]
}